<?xml version="1.0" encoding="UTF-8"?>
<ndm xmlns:xsi="http://www.w3.org/2001/XMLSchema-instance" xsi:noNamespaceSchemaLocation="https://sanaregistry.org/r/ndmxml_unqualified/ndmxml-2.0.0-master-2.0.xsd">
<omm id="CCSDS_OMM_VERS" version="2.0">
<header><CREATION_DATE/><ORIGINATOR/></header><body><segment><metadata><OBJECT_NAME>IRIDIUM 39</OBJECT_NAME><OBJECT_ID>1997-069D</OBJECT_ID><CENTER_NAME>EARTH</CENTER_NAME><REF_FRAME>TEME</REF_FRAME><TIME_SYSTEM>UTC</TIME_SYSTEM><MEAN_ELEMENT_THEORY>SGP4</MEAN_ELEMENT_THEORY></metadata><data><meanElements><EPOCH>2025-10-01T04:20:16.842336</EPOCH><MEAN_MOTION>14.49359726</MEAN_MOTION><ECCENTRICITY>.0016432</ECCENTRICITY><INCLINATION>86.3974</INCLINATION><RA_OF_ASC_NODE>165.7360</RA_OF_ASC_NODE><ARG_OF_PERICENTER>318.7635</ARG_OF_PERICENTER><MEAN_ANOMALY>41.2327</MEAN_ANOMALY></meanElements><tleParameters><EPHEMERIS_TYPE>0</EPHEMERIS_TYPE><CLASSIFICATION_TYPE>U</CLASSIFICATION_TYPE><NORAD_CAT_ID>25042</NORAD_CAT_ID><ELEMENT_SET_NO>999</ELEMENT_SET_NO><REV_AT_EPOCH>46431</REV_AT_EPOCH><BSTAR>.38675E-3</BSTAR><MEAN_MOTION_DOT>.1499E-4</MEAN_MOTION_DOT><MEAN_MOTION_DDOT>0</MEAN_MOTION_DDOT></tleParameters></data></segment></body></omm>
<omm id="CCSDS_OMM_VERS" version="2.0">
<header><CREATION_DATE/><ORIGINATOR/></header><body><segment><metadata><OBJECT_NAME>IRIDIUM 38</OBJECT_NAME><OBJECT_ID>1997-069E</OBJECT_ID><CENTER_NAME>EARTH</CENTER_NAME><REF_FRAME>TEME</REF_FRAME><TIME_SYSTEM>UTC</TIME_SYSTEM><MEAN_ELEMENT_THEORY>SGP4</MEAN_ELEMENT_THEORY></metadata><data><meanElements><EPOCH>2025-09-30T20:34:28.364736</EPOCH><MEAN_MOTION>14.38214834</MEAN_MOTION><ECCENTRICITY>.000403</ECCENTRICITY><INCLINATION>86.4030</INCLINATION><RA_OF_ASC_NODE>188.7312</RA_OF_ASC_NODE><ARG_OF_PERICENTER>97.2159</ARG_OF_PERICENTER><MEAN_ANOMALY>262.9497</MEAN_ANOMALY></meanElements><tleParameters><EPHEMERIS_TYPE>0</EPHEMERIS_TYPE><CLASSIFICATION_TYPE>U</CLASSIFICATION_TYPE><NORAD_CAT_ID>25043</NORAD_CAT_ID><ELEMENT_SET_NO>999</ELEMENT_SET_NO><REV_AT_EPOCH>46114</REV_AT_EPOCH><BSTAR>.32212E-3</BSTAR><MEAN_MOTION_DOT>.997E-5</MEAN_MOTION_DOT><MEAN_MOTION_DDOT>0</MEAN_MOTION_DDOT></tleParameters></data></segment></body></omm>
<omm id="CCSDS_OMM_VERS" version="2.0">
<header><CREATION_DATE/><ORIGINATOR/></header><body><segment><metadata><OBJECT_NAME>IRIDIUM 42</OBJECT_NAME><OBJECT_ID>1997-077A</OBJECT_ID><CENTER_NAME>EARTH</CENTER_NAME><REF_FRAME>TEME</REF_FRAME><TIME_SYSTEM>UTC</TIME_SYSTEM><MEAN_ELEMENT_THEORY>SGP4</MEAN_ELEMENT_THEORY></metadata><data><meanElements><EPOCH>2025-10-01T01:30:49.443264</EPOCH><MEAN_MOTION>14.36443785</MEAN_MOTION><ECCENTRICITY>.0002819</ECCENTRICITY><INCLINATION>86.4032</INCLINATION><RA_OF_ASC_NODE>194.9370</RA_OF_ASC_NODE><ARG_OF_PERICENTER>96.3607</ARG_OF_PERICENTER><MEAN_ANOMALY>263.7911</MEAN_ANOMALY></meanElements><tleParameters><EPHEMERIS_TYPE>0</EPHEMERIS_TYPE><CLASSIFICATION_TYPE>U</CLASSIFICATION_TYPE><NORAD_CAT_ID>25077</NORAD_CAT_ID><ELEMENT_SET_NO>999</ELEMENT_SET_NO><REV_AT_EPOCH>45639</REV_AT_EPOCH><BSTAR>.33046E-3</BSTAR><MEAN_MOTION_DOT>.988E-5</MEAN_MOTION_DOT><MEAN_MOTION_DDOT>0</MEAN_MOTION_DDOT></tleParameters></data></segment></body></omm>
<omm id="CCSDS_OMM_VERS" version="2.0">
<header><CREATION_DATE/><ORIGINATOR/></header><body><segment><metadata><OBJECT_NAME>IRIDIUM 44</OBJECT_NAME><OBJECT_ID>1997-077B</OBJECT_ID><CENTER_NAME>EARTH</CENTER_NAME><REF_FRAME>TEME</REF_FRAME><TIME_SYSTEM>UTC</TIME_SYSTEM><MEAN_ELEMENT_THEORY>SGP4</MEAN_ELEMENT_THEORY></metadata><data><meanElements><EPOCH>2025-10-01T00:13:47.527968</EPOCH><MEAN_MOTION>14.40338340</MEAN_MOTION><ECCENTRICITY>.0003771</ECCENTRICITY><INCLINATION>86.4033</INCLINATION><RA_OF_ASC_NODE>176.6299</RA_OF_ASC_NODE><ARG_OF_PERICENTER>64.2515</ARG_OF_PERICENTER><MEAN_ANOMALY>295.9073</MEAN_ANOMALY></meanElements><tleParameters><EPHEMERIS_TYPE>0</EPHEMERIS_TYPE><CLASSIFICATION_TYPE>U</CLASSIFICATION_TYPE><NORAD_CAT_ID>25078</NORAD_CAT_ID><ELEMENT_SET_NO>999</ELEMENT_SET_NO><REV_AT_EPOCH>45893</REV_AT_EPOCH><BSTAR>.28831E-3</BSTAR><MEAN_MOTION_DOT>.933E-5</MEAN_MOTION_DOT><MEAN_MOTION_DDOT>0</MEAN_MOTION_DDOT></tleParameters></data></segment></body></omm>
<omm id="CCSDS_OMM_VERS" version="2.0">
<header><CREATION_DATE/><ORIGINATOR/></header><body><segment><metadata><OBJECT_NAME>IRIDIUM 45</OBJECT_NAME><OBJECT_ID>1997-082A</OBJECT_ID><CENTER_NAME>EARTH</CENTER_NAME><REF_FRAME>TEME</REF_FRAME><TIME_SYSTEM>UTC</TIME_SYSTEM><MEAN_ELEMENT_THEORY>SGP4</MEAN_ELEMENT_THEORY></metadata><data><meanElements><EPOCH>2025-09-30T19:48:41.758848</EPOCH><MEAN_MOTION>15.26581758</MEAN_MOTION><ECCENTRICITY>.010562</ECCENTRICITY><INCLINATION>86.3617</INCLINATION><RA_OF_ASC_NODE>356.4576</RA_OF_ASC_NODE><ARG_OF_PERICENTER>294.9249</ARG_OF_PERICENTER><MEAN_ANOMALY>64.1050</MEAN_ANOMALY></meanElements><tleParameters><EPHEMERIS_TYPE>0</EPHEMERIS_TYPE><CLASSIFICATION_TYPE>U</CLASSIFICATION_TYPE><NORAD_CAT_ID>25104</NORAD_CAT_ID><ELEMENT_SET_NO>999</ELEMENT_SET_NO><REV_AT_EPOCH>46813</REV_AT_EPOCH><BSTAR>.13708E-2</BSTAR><MEAN_MOTION_DOT>.42429E-3</MEAN_MOTION_DOT><MEAN_MOTION_DDOT>0</MEAN_MOTION_DDOT></tleParameters></data></segment></body></omm>
<omm id="CCSDS_OMM_VERS" version="2.0">
<header><CREATION_DATE/><ORIGINATOR/></header><body><segment><metadata><OBJECT_NAME>IRIDIUM 24</OBJECT_NAME><OBJECT_ID>1997-082B</OBJECT_ID><CENTER_NAME>EARTH</CENTER_NAME><REF_FRAME>TEME</REF_FRAME><TIME_SYSTEM>UTC</TIME_SYSTEM><MEAN_ELEMENT_THEORY>SGP4</MEAN_ELEMENT_THEORY></metadata><data><meanElements><EPOCH>2025-10-01T01:18:05.892768</EPOCH><MEAN_MOTION>14.42214746</MEAN_MOTION><ECCENTRICITY>.001346</ECCENTRICITY><INCLINATION>86.3931</INCLINATION><RA_OF_ASC_NODE>35.3672</RA_OF_ASC_NODE><ARG_OF_PERICENTER>88.9931</ARG_OF_PERICENTER><MEAN_ANOMALY>271.2811</MEAN_ANOMALY></meanElements><tleParameters><EPHEMERIS_TYPE>0</EPHEMERIS_TYPE><CLASSIFICATION_TYPE>U</CLASSIFICATION_TYPE><NORAD_CAT_ID>25105</NORAD_CAT_ID><ELEMENT_SET_NO>999</ELEMENT_SET_NO><REV_AT_EPOCH>45847</REV_AT_EPOCH><BSTAR>.39285E-3</BSTAR><MEAN_MOTION_DOT>.1315E-4</MEAN_MOTION_DOT><MEAN_MOTION_DDOT>0</MEAN_MOTION_DDOT></tleParameters></data></segment></body></omm>
<omm id="CCSDS_OMM_VERS" version="2.0">
<header><CREATION_DATE/><ORIGINATOR/></header><body><segment><metadata><OBJECT_NAME>IRIDIUM 51</OBJECT_NAME><OBJECT_ID>1998-018A</OBJECT_ID><CENTER_NAME>EARTH</CENTER_NAME><REF_FRAME>TEME</REF_FRAME><TIME_SYSTEM>UTC</TIME_SYSTEM><MEAN_ELEMENT_THEORY>SGP4</MEAN_ELEMENT_THEORY></metadata><data><meanElements><EPOCH>2025-09-30T23:35:24.517824</EPOCH><MEAN_MOTION>15.48716227</MEAN_MOTION><ECCENTRICITY>.0071745</ECCENTRICITY><INCLINATION>86.3846</INCLINATION><RA_OF_ASC_NODE>3.1537</RA_OF_ASC_NODE><ARG_OF_PERICENTER>200.5826</ARG_OF_PERICENTER><MEAN_ANOMALY>159.2541</MEAN_ANOMALY></meanElements><tleParameters><EPHEMERIS_TYPE>0</EPHEMERIS_TYPE><CLASSIFICATION_TYPE>U</CLASSIFICATION_TYPE><NORAD_CAT_ID>25262</NORAD_CAT_ID><ELEMENT_SET_NO>999</ELEMENT_SET_NO><REV_AT_EPOCH>46334</REV_AT_EPOCH><BSTAR>.1784E-2</BSTAR><MEAN_MOTION_DOT>.1071E-2</MEAN_MOTION_DOT><MEAN_MOTION_DDOT>0</MEAN_MOTION_DDOT></tleParameters></data></segment></body></omm>
<omm id="CCSDS_OMM_VERS" version="2.0">
<header><CREATION_DATE/><ORIGINATOR/></header><body><segment><metadata><OBJECT_NAME>IRIDIUM 57</OBJECT_NAME><OBJECT_ID>1998-019B</OBJECT_ID><CENTER_NAME>EARTH</CENTER_NAME><REF_FRAME>TEME</REF_FRAME><TIME_SYSTEM>UTC</TIME_SYSTEM><MEAN_ELEMENT_THEORY>SGP4</MEAN_ELEMENT_THEORY></metadata><data><meanElements><EPOCH>2025-09-30T22:54:58.279680</EPOCH><MEAN_MOTION>14.35963624</MEAN_MOTION><ECCENTRICITY>.0002222</ECCENTRICITY><INCLINATION>86.3904</INCLINATION><RA_OF_ASC_NODE>100.9307</RA_OF_ASC_NODE><ARG_OF_PERICENTER>89.1760</ARG_OF_PERICENTER><MEAN_ANOMALY>270.9691</MEAN_ANOMALY></meanElements><tleParameters><EPHEMERIS_TYPE>0</EPHEMERIS_TYPE><CLASSIFICATION_TYPE>U</CLASSIFICATION_TYPE><NORAD_CAT_ID>25273</NORAD_CAT_ID><ELEMENT_SET_NO>999</ELEMENT_SET_NO><REV_AT_EPOCH>43996</REV_AT_EPOCH><BSTAR>.23969E-3</BSTAR><MEAN_MOTION_DOT>.715E-5</MEAN_MOTION_DOT><MEAN_MOTION_DDOT>0</MEAN_MOTION_DDOT></tleParameters></data></segment></body></omm>

</ndm>
