IRIDIUM 39              
1 25042U 97069D   25274.18075049  .00001499  00000+0  38675-3 0  9992
2 25042  86.3974 165.7360 0016432 318.7635  41.2327 14.49359726464316
IRIDIUM 38              
1 25043U 97069E   25273.85727274  .00000997  00000+0  32212-3 0  9993
2 25043  86.4030 188.7312 0004030  97.2159 262.9497 14.38214834461140
IRIDIUM 42              
1 25077U 97077A   25274.06307226  .00000988  00000+0  33046-3 0  9990
2 25077  86.4032 194.9370 0002819  96.3607 263.7911 14.36443785456391
IRIDIUM 44              
1 25078U 97077B   25274.00957787  .00000933  00000+0  28831-3 0  9994
2 25078  86.4033 176.6299 0003771  64.2515 295.9073 14.40338340458933
IRIDIUM 45              
1 25104U 97082A   25273.82548332  .00042429  00000+0  13708-2 0  9993
2 25104  86.3617 356.4576 0105620 294.9249  64.1050 15.26581758468130
IRIDIUM 24              
1 25105U 97082B   25274.05423487  .00001315  00000+0  39285-3 0  9991
2 25105  86.3931  35.3672 0013460  88.9931 271.2811 14.42214746458478
IRIDIUM 51              
1 25262U 98018A   25273.98292266  .00107100  00000+0  17840-2 0  9996
2 25262  86.3846   3.1537 0071745 200.5826 159.2541 15.48716227463340
IRIDIUM 57              
1 25273U 98019B   25273.95484120  .00000715  00000+0  23969-3 0  9992
2 25273  86.3904 100.9307 0002222  89.1760 270.9691 14.35963624439968
